SPACEMOBILE-006         
1 67232U 25309A   26020.11704681 -.00000815  00000+0 -24112-4 0  9996
2 67232  52.9969 289.4295 0012234  43.9483 316.2481 15.17747762  4101
LVM3 R/B                
1 67233U 25309B   26022.32039801  .00009831  00000+0  46642-3 0  9993
2 67233  52.9300 278.6793 0012139  74.1844 286.0487 15.19840020  4445
2025-310A               
1 67234U 25310A   26022.04581117  .00000105  00000+0  22702-4 0  9994
2 67234  97.9666  31.4491 0002448 159.6733 200.4574 14.75705289  4072
SL-4 R/B                
1 67235U 25310B   26022.24579438  .00303174  25174-5  57859-3 0  9997
2 67235  97.9596  34.9363 0247183 335.7401  23.2373 15.64010587  4300
HULIANWANG DIGUI-128    
1 67236U 25311A   26019.95125797  .00000014  00000+0  13469-3 0  9999
2 67236  50.0140 296.2734 0000252 253.4810 106.6060 13.87303514  3480
HULIANWANG DIGUI-129    
1 67237U 25311B   26018.72886334 -.00000022  00000+0  10227-3 0  9994
2 67237  50.0108 301.1467 0003027   4.8681 355.2246 13.88330463  3315
HULIANWANG DIGUI-130    
1 67238U 25311C   26019.96223561  .00000019  00000+0  14106-3 0  9994
2 67238  50.0087 296.3440 0002310 353.9164   6.1704 13.86351500  3488
HULIANWANG DIGUI-131    
1 67239U 25311D   26021.62452235  .00000062  00000+0  18079-3 0  9994
2 67239  50.0043 289.7812 0001382 300.8761  59.2000 13.85113925  3712
HULIANWANG DIGUI-132    
1 67240U 25311E   26019.52587685 -.00000001  00000+0  12211-3 0  9996
2 67240  50.0067 298.0251 0002537 357.6179   2.4706 13.87274802  3421
HULIANWANG DIGUI-133    
1 67241U 25311F   26019.01921438 -.00000013  00000+0  11135-3 0  9996
2 67241  50.0120 300.0209 0001654 358.6211   1.4682 13.87706822  3352
HULIANWANG DIGUI-134    
1 67242U 25311G   26019.81304767  .00000016  00000+0  13743-3 0  9994
2 67242  50.0123 296.8687 0000579 268.9105  91.1726 13.86837554  3461
HULIANWANG DIGUI-135    
1 67243U 25311H   26019.88809497  .00000008  00000+0  13091-3 0  9999
2 67243  50.0065 296.5888 0000658   9.9203 350.1707 13.86569610  3470
